[{"OBJECT_NAME":"TIANMU-1 08","OBJECT_ID":"2023-101B","EPOCH":"2026-03-07T00:03:25.475616","MEAN_MOTION":15.29204229,"ECCENTRICITY":0.00063808,"INCLINATION":97.2717,"RA_OF_ASC_NODE":118.7901,"ARG_OF_PERICENTER":134.2174,"MEAN_ANOMALY":225.9592,"EPHEMERIS_TYPE":0,"CLASSIFICATION_TYPE":"U","NORAD_CAT_ID":57400,"ELEMENT_SET_NO":999,"REV_AT_EPOCH":14602,"BSTAR":1.4774513e-5,"MEAN_MOTION_DOT":3.46e-6,"MEAN_MOTION_DDOT":0},{"OBJECT_NAME":"STARLINK-36423","OBJECT_ID":"2026-008D","EPOCH":"2026-03-09T10:23:06.144864","MEAN_MOTION":15.27585154,"ECCENTRICITY":0.00016452,"INCLINATION":42.9989,"RA_OF_ASC_NODE":206.6197,"ARG_OF_PERICENTER":267.6574,"MEAN_ANOMALY":92.4089,"EPHEMERIS_TYPE":0,"CLASSIFICATION_TYPE":"U","NORAD_CAT_ID":67448,"ELEMENT_SET_NO":999,"REV_AT_EPOCH":953,"BSTAR":0.0009336997,"MEAN_MOTION_DOT":0.00025525,"MEAN_MOTION_DDOT":0}]
