TIANMU-1 08             
1 57400U 23101B   26066.00237819  .00000346  00000+0  14775-4 0  9993
2 57400  97.2717 118.7901 0006380 134.2174 225.9592 15.29204229146020
STARLINK-36423          
1 67448U 26008D   26068.43271001  .00025525  00000+0  93370-3 0  9998
2 67448  42.9989 206.6197 0001645 267.6574  92.4089 15.27585154  9538
